{
  "type": "FeatureCollection",
  "features": [
    {
      "type": "Feature",
      "properties": {
        "norad_id": 49809,
        "name": "GSAT0223 (GALILEO 27)",
        "group": "gnss",
        "lat": 57.17184577903706,
        "lon": 73.91936565971615,
        "alt_km": 23228.15405998227,
        "timestamp": "2025-12-21T09:37:22.898149+00:00",
        "meta_object_name": "GSAT0223 (GALILEO 27)",
        "meta_object_id": "2021-116A",
        "meta_epoch": "2025-12-19T11:56:47.637312",
        "meta_mean_motion": 1.7047609,
        "meta_eccentricity": 0.00044147,
        "meta_inclination": 57.2179,
        "meta_ra_of_asc_node": 346.5305,
        "meta_arg_of_pericenter": 254.6091,
        "meta_mean_anomaly": 105.9777,
        "meta_ephemeris_type": 0,
        "meta_classification_type": "U",
        "meta_norad_cat_id": 49809,
        "meta_element_set_no": 999,
        "meta_rev_at_epoch": 2512,
        "meta_bstar": 0,
        "meta_mean_motion_dot": -7.2e-07,
        "meta_mean_motion_ddot": 0,
        "tle_line1": "1 49809U 21116A   25353.49777358 -.00000072  00000+0  00000+0 0  9997",
        "tle_line2": "2 49809  57.2179 346.5305 0004414 254.6091 105.9777  1.70476090 25129"
      },
      "geometry": {
        "type": "Point",
        "coordinates": [
          73.91936565971615,
          57.17184577903706
        ]
      }
    },
    {
      "type": "Feature",
      "properties": {
        "norad_id": 49810,
        "name": "GSAT0224 (GALILEO 28)",
        "group": "gnss",
        "lat": -17.704503428164205,
        "lon": 178.3402855575423,
        "alt_km": 23218.673536611215,
        "timestamp": "2025-12-21T09:37:22.898162+00:00",
        "meta_object_name": "GSAT0224 (GALILEO 28)",
        "meta_object_id": "2021-116B",
        "meta_epoch": "2025-12-20T04:43:34.979232",
        "meta_mean_motion": 1.70476091,
        "meta_eccentricity": 0.0003747,
        "meta_inclination": 57.2188,
        "meta_ra_of_asc_node": 346.5104,
        "meta_arg_of_pericenter": 259.7047,
        "meta_mean_anomaly": 282.5653,
        "meta_ephemeris_type": 0,
        "meta_classification_type": "U",
        "meta_norad_cat_id": 49810,
        "meta_element_set_no": 999,
        "meta_rev_at_epoch": 2515,
        "meta_bstar": 0,
        "meta_mean_motion_dot": -7e-07,
        "meta_mean_motion_ddot": 0,
        "tle_line1": "1 49810U 21116B   25354.19693263 -.00000070  00000+0  00000+0 0  9997",
        "tle_line2": "2 49810  57.2188 346.5104 0003747 259.7047 282.5653  1.70476091 25152"
      },
      "geometry": {
        "type": "Point",
        "coordinates": [
          178.3402855575423,
          -17.704503428164205
        ]
      }
    },
    {
      "type": "Feature",
      "properties": {
        "norad_id": 52984,
        "name": "COSMOS 2557 (706K)",
        "group": "gnss",
        "lat": 58.67669430422689,
        "lon": 88.8047097029714,
        "alt_km": 19157.41972947766,
        "timestamp": "2025-12-21T09:37:22.898176+00:00",
        "meta_object_name": "COSMOS 2557 (706K)",
        "meta_object_id": "2022-075A",
        "meta_epoch": "2025-12-20T07:41:36.547296",
        "meta_mean_motion": 2.13102072,
        "meta_eccentricity": 0.0013536,
        "meta_inclination": 64.4056,
        "meta_ra_of_asc_node": 320.785,
        "meta_arg_of_pericenter": 278.2438,
        "meta_mean_anomaly": 81.5952,
        "meta_ephemeris_type": 0,
        "meta_classification_type": "U",
        "meta_norad_cat_id": 52984,
        "meta_element_set_no": 999,
        "meta_rev_at_epoch": 2690,
        "meta_bstar": 0,
        "meta_mean_motion_dot": -5.4e-07,
        "meta_mean_motion_ddot": 0,
        "tle_line1": "1 52984U 22075A   25354.32056189 -.00000054  00000+0  00000+0 0  9995",
        "tle_line2": "2 52984  64.4056 320.7850 0013536 278.2438  81.5952  2.13102072 26907"
      },
      "geometry": {
        "type": "Point",
        "coordinates": [
          88.8047097029714,
          58.67669430422689
        ]
      }
    },
    {
      "type": "Feature",
      "properties": {
        "norad_id": 54031,
        "name": "COSMOS 2559 (707K)",
        "group": "gnss",
        "lat": -56.5135218735504,
        "lon": -172.707734741611,
        "alt_km": 19119.58874765397,
        "timestamp": "2025-12-21T09:37:22.898188+00:00",
        "meta_object_name": "COSMOS 2559 (707K)",
        "meta_object_id": "2022-130A",
        "meta_epoch": "2025-12-21T01:52:43.812768",
        "meta_mean_motion": 2.13101354,
        "meta_eccentricity": 0.001156,
        "meta_inclination": 64.3775,
        "meta_ra_of_asc_node": 320.8477,
        "meta_arg_of_pericenter": 191.8523,
        "meta_mean_anomaly": 168.1144,
        "meta_ephemeris_type": 0,
        "meta_classification_type": "U",
        "meta_norad_cat_id": 54031,
        "meta_element_set_no": 999,
        "meta_rev_at_epoch": 2489,
        "meta_bstar": 0,
        "meta_mean_motion_dot": -5e-07,
        "meta_mean_motion_ddot": 0,
        "tle_line1": "1 54031U 22130A   25355.07828487 -.00000050  00000+0  00000+0 0  9999",
        "tle_line2": "2 54031  64.3775 320.8477 0011560 191.8523 168.1144  2.13101354 24898"
      },
      "geometry": {
        "type": "Point",
        "coordinates": [
          -172.707734741611,
          -56.5135218735504
        ]
      }
    },
    {
      "type": "Feature",
      "properties": {
        "norad_id": 54377,
        "name": "COSMOS 2564 (761)",
        "group": "gnss",
        "lat": 6.401043792849586,
        "lon": -158.3458642246847,
        "alt_km": 19150.481558038162,
        "timestamp": "2025-12-21T09:37:22.898199+00:00",
        "meta_object_name": "COSMOS 2564 (761)",
        "meta_object_id": "2022-161A",
        "meta_epoch": "2025-12-20T22:08:20.200128",
        "meta_mean_motion": 2.13102062,
        "meta_eccentricity": 0.0008546,
        "meta_inclination": 64.7387,
        "meta_ra_of_asc_node": 198.627,
        "meta_arg_of_pericenter": 203.7849,
        "meta_mean_anomaly": 156.2498,
        "meta_ephemeris_type": 0,
        "meta_classification_type": "U",
        "meta_norad_cat_id": 54377,
        "meta_element_set_no": 999,
        "meta_rev_at_epoch": 2383,
        "meta_bstar": 0,
        "meta_mean_motion_dot": 9.9e-07,
        "meta_mean_motion_ddot": 0,
        "tle_line1": "1 54377U 22161A   25354.92245602  .00000099  00000+0  00000+0 0  9993",
        "tle_line2": "2 54377  64.7387 198.6270 0008546 203.7849 156.2498  2.13102062 23830"
      },
      "geometry": {
        "type": "Point",
        "coordinates": [
          -158.3458642246847,
          6.401043792849586
        ]
      }
    },
    {
      "type": "Feature",
      "properties": {
        "norad_id": 55268,
        "name": "GPS BIII-6  (PRN 28)",
        "group": "gnss",
        "lat": -34.15852834335851,
        "lon": 127.22114652211462,
        "alt_km": 20179.593065225712,
        "timestamp": "2025-12-21T09:37:22.898210+00:00",
        "meta_object_name": "GPS BIII-6  (PRN 28)",
        "meta_object_id": "2023-009A",
        "meta_epoch": "2025-12-20T11:03:51.058368",
        "meta_mean_motion": 2.00555101,
        "meta_eccentricity": 0.00037,
        "meta_inclination": 55.1064,
        "meta_ra_of_asc_node": 155.5422,
        "meta_arg_of_pericenter": 356.2334,
        "meta_mean_anomaly": 1.8873,
        "meta_ephemeris_type": 0,
        "meta_classification_type": "U",
        "meta_norad_cat_id": 55268,
        "meta_element_set_no": 999,
        "meta_rev_at_epoch": 2165,
        "meta_bstar": 0,
        "meta_mean_motion_dot": 6.5e-07,
        "meta_mean_motion_ddot": 0,
        "tle_line1": "1 55268U 23009A   25354.46100762  .00000065  00000+0  00000+0 0  9994",
        "tle_line2": "2 55268  55.1064 155.5422 0003700 356.2334   1.8873  2.00555101 21659"
      },
      "geometry": {
        "type": "Point",
        "coordinates": [
          127.22114652211462,
          -34.15852834335851
        ]
      }
    },
    {
      "type": "Feature",
      "properties": {
        "norad_id": 56564,
        "name": "BEIDOU-3 G4 (C62)",
        "group": "gnss",
        "lat": 0.8118757290720781,
        "lon": 34.59395814191878,
        "alt_km": 35793.98387720556,
        "timestamp": "2025-12-21T09:37:22.898224+00:00",
        "meta_object_name": "BEIDOU-3 G4 (C62)",
        "meta_object_id": "2023-066A",
        "meta_epoch": "2025-12-21T02:07:38.549568",
        "meta_mean_motion": 1.00271445,
        "meta_eccentricity": 0.0002696,
        "meta_inclination": 0.7977,
        "meta_ra_of_asc_node": 302.6837,
        "meta_arg_of_pericenter": 226.3603,
        "meta_mean_anomaly": 112.8404,
        "meta_ephemeris_type": 0,
        "meta_classification_type": "U",
        "meta_norad_cat_id": 56564,
        "meta_element_set_no": 999,
        "meta_rev_at_epoch": 960,
        "meta_bstar": 0,
        "meta_mean_motion_dot": -8.7e-07,
        "meta_mean_motion_ddot": 0,
        "tle_line1": "1 56564U 23066A   25355.08864062 -.00000087  00000+0  00000+0 0  9991",
        "tle_line2": "2 56564   0.7977 302.6837 0002696 226.3603 112.8404  1.00271445  9601"
      },
      "geometry": {
        "type": "Point",
        "coordinates": [
          34.59395814191878,
          0.8118757290720781
        ]
      }
    }
  ]
}